CHINASAT 6A (ZX 6A)     
1 37150U 10042A   20031.83695028 -.00000348  00000-0  00000-0 0  9996
2 37150   0.0340 130.4167 0001132  84.4773 341.9418  1.00268800 34559
QZS-1 (MICHIBIKI-1)     
1 37158U 10045A   20030.65200530 -.00000172  00000-0  00000+0 0  9990
2 37158  41.5112 145.5654 0758852 270.5336  85.0786  1.00254839 34352
XM-5                    
1 37185U 10053A   20032.06112500 -.00000198  00000-0  00000-0 0  9994
2 37185   0.0168  87.6204 0001845 323.5213  16.3618  1.00271424 34143
BSAT-3B                 
1 37207U 10056B   20032.09910392 -.00000344  00000-0  00000-0 0  9993
2 37207   0.0689 303.0311 0004531  17.0809 316.1659  1.00273192 28841
BEIDOU 6                
1 37210U 10057A   20032.55127907 -.00000105  00000-0  00000+0 0  9995
2 37210   0.9183  52.3747 0005429 172.2452 265.0366  1.00272004 33940
SKYTERRA 1              
1 37218U 10061A   20032.42740392 -.00000108  00000-0  00000+0 0  9996
2 37218   2.2238 354.1554 0001774 341.4039 208.1125  1.00272407 33884
ZHONGXING-20A           
1 37234U 10064A   20032.47276666 -.00000343  00000-0  00000+0 0  9991
2 37234   0.5394  99.5150 0003346 232.2545  96.0202  1.00270063 33699
HYLAS 1                 
1 37237U 10065A   20032.43185296 -.00000226  00000-0  00000+0 0  9999
2 37237   0.0605 285.1763 0002204  15.1397 267.2232  1.00274742 33660
INTELSAT 17 (IS-17)     
1 37238U 10065B   20032.43174543  .00000006  00000-0  00000+0 0  9998
2 37238   0.0136 109.2159 0002399 213.5057  29.7802  1.00272064 33587
BEIDOU 7                
1 37256U 10068A   20032.16422463 -.00000205  00000-0  10000-3 0  9995
2 37256  51.7102 299.9646 0069818 210.3985 155.1365  1.00248399 33464
EUTELSAT KA-SAT 9A      
1 37258U 10069A   20032.16220642  .00000069  00000-0  00000-0 0  9996
2 37258   0.0144  30.0736 0000621 324.7345 203.3264  1.00274189 20679
HISPASAT 30W-5          
1 37264U 10070A   20032.13330715 -.00000209  00000-0  00000-0 0  9992
2 37264   0.0105 134.3893 0002195 199.2089 175.2049  1.00271828 29846
KOREASAT 6              
1 37265U 10070B   20032.48369792 -.00000354  00000-0  00000+0 0  9998
2 37265   0.0341 235.0682 0001628  99.7768  86.4465  1.00272816 33345
BEIDOU 8                
1 37384U 11013A   20032.42157355 -.00000175  00000-0  10000-3 0  9998
2 37384  59.0972  62.9904 0048399 206.2890 130.8816  1.00297704 32337
INTELSAT NEW DAWN       
1 37392U 11016A   20032.25466200  .00000163  00000-0  00000+0 0  9994
2 37392   0.0227 175.4069 0000675 312.6068 127.3730  1.00274553 32176
YAHSAT 1A               
1 37393U 11016B   20032.16986627  .00000108  00000-0  00000+0 0  9994
2 37393   0.0136  86.0897 0002575 211.8162 306.5871  1.00269630 32210
SBIRS GEO-1 (USA 230)   
1 37481U 11019A   20032.43174543  .00000002  00000-0  00000+0 0  9994
2 37481   2.2129 338.2395 0001695 340.5958  33.8689  1.00271975 32003
TELSTAR 14R             
1 37602U 11021A   20032.43499347 -.00000272  00000-0  00000+0 0  9994
2 37602   0.0449 286.1756 0002128 108.0238 190.4643  1.00270375 32442
GSAT-8                  
1 37605U 11022A   20032.53025521  .00000093  00000-0  00000+0 0  9998
2 37605   0.0154  96.2685 0008012 184.6824  96.2118  1.00271603 31903
ST-2                    
1 37606U 11022B   20032.46508990 -.00000204  00000-0  00000+0 0  9992
2 37606   0.0127 102.4864 0001494 226.6213  57.4234  1.00273836 31907
CHINASAT 10 (ZX 10)     
1 37677U 11026A   20032.17574778 -.00000345  00000-0  00000+0 0  9995
2 37677   0.0838 267.9119 0002711 298.5791  98.1215  1.00274674 31616
TIANLIAN 1-02           
1 37737U 11032A   20032.55345998 -.00000011  00000-0  00000+0 0  9991
2 37737   2.8063  74.2186 0011298 126.9422 300.2224  1.00272067 31386
GSAT-12                 
1 37746U 11034A   20032.13104878 -.00000158  00000-0  00000-0 0  9990
2 37746   0.0066 258.4249 0007529 192.1291 170.4045  1.00273310 20148
SES-3                   
1 37748U 11035A   20032.42705498 -.00000094  00000-0  00000+0 0  9998
2 37748   0.0155   0.3939 0002306 308.6513 232.7682  1.00271403 31353
KAZSAT-2                
1 37749U 11035B   20032.13104878 -.00000191  00000-0  00000-0 0  9991
2 37749   0.0427 248.4728 0000359 110.9830 265.0096  1.00271466 30041
BEIDOU 9                
1 37763U 11038A   20032.56073784 -.00000030  00000-0  10000-3 0  9994
2 37763  54.4294 186.6765 0066833 223.9958  18.3344  1.00278489 31308
ASTRA 1N                
1 37775U 11041A   20032.52310185  .00000127  00000-0  00000+0 0  9997
2 37775   0.0370  16.3950 0003981 337.6004 344.6988  1.00269891 31067
BSAT-3C (JCSAT-110R)    
1 37776U 11041B   20032.46945169 -.00000343  00000-0  00000+0 0  9998
2 37776   0.0134  59.3184 0000338 334.1228  16.6398  1.00273166 31189
PAKSAT-1R               
1 37779U 11042A   20032.44285676  .00000161  00000-0  00000+0 0  9997
2 37779   0.0389 250.4032 0003087  73.4700   4.6761  1.00274741 30935
CHINASAT 1A (ZX 1A)     
1 37804U 11047A   20032.11332769 -.00000331  00000-0  00000-0 0  9992
2 37804   0.0314 147.4852 0002836 206.8600 307.0025  1.00273494 30734
COSMOS 2473             
1 37806U 11048A   20031.65525946 -.00000102  00000-0  00000-0 0  9990
2 37806   0.0659 107.9870 0002026 216.9806  27.7256  1.00271716 30715
SES-2                   
1 37809U 11049A   20032.41924424 -.00000188  00000-0  00000+0 0  9996
2 37809   0.0549 278.6289 0002560  21.6121 254.7655  1.00273181 30667
ARABSAT-5C              
1 37810U 11049B   20032.16438731  .00000130  00000-0  00000-0 0  9998
2 37810   0.0660  38.2025 0002495 263.8633 267.9734  1.00268132 30716
EUTELSAT 7 WEST A       
1 37816U 11051A   20032.38035463 -.00000053  00000-0  00000+0 0  9990
2 37816   0.0604   3.0143 0004644 214.9878  42.6772  1.00271725 30629
QUETZSAT 1              
1 37826U 11054A   20032.41369025 -.00000234  00000-0  00000+0 0  9993
2 37826   0.0338 310.8645 0002732   1.5926 250.5305  1.00273480 30756
INTELSAT 18 (IS-18)     
1 37834U 11056A   20032.47271574  .00000060  00000-0  00000+0 0  9997
2 37834   0.0132  77.7298 0002524 252.3334 151.2743  1.00268125 30515
EUTELSAT 16A            
1 37836U 11057A   20032.16360219  .00000111  00000-0  00000-0 0  9999
2 37836   0.0650   7.6641 0004556 303.4203 254.6274  1.00269841 22644
VIASAT-1                
1 37843U 11059A   20032.52279257 -.00000015  00000-0  00000+0 0  9993
2 37843   0.0174  94.0036 0002337 215.6838 254.5854  1.00267418 30936
ASIASAT 7               
1 37933U 11069A   20032.46857933 -.00000326  00000-0  00000+0 0  9995
2 37933   0.0660 270.1587 0001819  26.7610 108.3644  1.00274974 30126
BEIDOU 10               
1 37948U 11073A   20032.23387850 -.00000146  00000-0  10000-3 0  9992
2 37948  51.7982 299.5407 0063489 213.3752 157.1450  1.00285957 30063
LUCH 5A                 
1 37951U 11074B   20032.60094314 -.00000041  00000-0  00000+0 0  9997
2 37951   2.9601 119.5090 0002123 216.1874 178.7245  1.00271660 29858
NIGCOMSAT 1R            
1 38014U 11077A   20032.52781260  .00000153  00000-0  00000+0 0  9998
2 38014   0.0032 231.3478 0003801 159.9466 332.3764  1.00271747 29696
FENGYUN 2F              
1 38049U 12002A   20032.54168311 -.00000350  00000-0  00000+0 0  9993
2 38049   1.7509  83.4688 0002832  17.2662 337.6068  1.00275646 29548
WGS F4 (USA 233)        
1 38070U 12003A   20032.46517713 -.00000207  00000-0  00000+0 0  9994
2 38070   0.0160  84.7213 0000137 187.1155 115.1189  1.00271329 29384
SES-4                   
1 38087U 12007A   20032.38021073 -.00000161  00000-0  00000+0 0  9995
2 38087   0.0122  28.5912 0002215 295.2542 282.0563  1.00272355 29146
BEIDOU 11               
1 38091U 12008A   20032.53104032  .00000064  00000-0  00000+0 0  9996
2 38091   1.8679  69.4326 0008207 280.2751  31.3871  1.00269594 29130
MUOS-1                  
1 38093U 12009A   20032.42766563 -.00000119  00000-0  00000+0 0  9992
2 38093   2.5527   2.8073 0058169   4.7039 177.5346  1.00271791 29112
INTELSAT 22 (IS-22)     
1 38098U 12011A   20032.17757660 -.00000052  00000-0  00000-0 0  9997
2 38098   0.0081  33.7531 0002546 293.5830 299.5236  1.00272128 28489
APSTAR 7                
1 38107U 12013A   20030.16570977 -.00000100  00000-0  00000-0 0  9995
2 38107   0.0341  95.2648 0002233 232.9796 296.7762  1.00273008 28809
YAHSAT 1B               
1 38245U 12016A   20032.44285676  .00000134  00000-0  00000+0 0  9998
2 38245   0.0172 101.8744 0002727 203.9065  32.3301  1.00272311 28573
AEHF-2 (USA 235)        
1 38254U 12019A   20032.43412111 -.00000268  00000-0  00000+0 0  9995
2 38254   1.8216  41.2925 0002902 303.6347 234.9219  1.00274330 28330
JCSAT-13                
1 38331U 12023A   20032.04155903 -.00000350  00000-0  00000-0 0  9999
2 38331   0.0134 111.6970 0002132 227.2002 290.7644  1.00271952 28184
VINASAT-2               
1 38332U 12023B   20031.97133402 -.00000322  00000-0  00000+0 0  9999
2 38332   0.0493 275.9612 0002176  42.9224 293.2616  1.00273279 28266
NIMIQ 6                 
1 38342U 12026A   20032.42941035 -.00000166  00000-0  00000+0 0  9999
2 38342   0.0154  21.3177 0002129 272.2164 261.0242  1.00271060 28252
CHINASAT 2A (ZX 2A)     
1 38352U 12028A   20032.46718355 -.00000284  00000-0  00000+0 0  9994
2 38352   0.0275 172.5563 0001823 192.0670  32.8994  1.00268688 28302
INTELSAT 19 (IS-19)     
1 38356U 12030A   20032.19352414 -.00000050  00000-0  00000-0 0  9993
2 38356   0.0149  91.1426 0003165 228.2279  47.1442  1.00272247 27119
ECHOSTAR 17             
1 38551U 12035A   20032.16906865 -.00000068  00000-0  00000+0 0  9995
2 38551   0.0179  87.9205 0002063 218.0802 138.5791  1.00272320 27789
METEOSAT-10 (MSG-3)     
1 38552U 12035B   20032.16229365  .00000071  00000-0  00000-0 0  9993
2 38552   1.0118 358.5673 0000632 272.5981 287.5927  1.00271480 27549
SES-5                   
1 38652U 12036A   20032.06785598  .00000041  00000-0  00000-0 0  9996
2 38652   0.0499  99.1205 0002073 195.8314 225.1778  1.00272320 21166
